[{"OBJECT_NAME":"STARLINK-6318","OBJECT_ID":"2023-065AD","EPOCH":"2026-03-09T10:15:43.273152","MEAN_MOTION":15.03004751,"ECCENTRICITY":5.141e-5,"INCLINATION":42.9979,"RA_OF_ASC_NODE":185.8718,"ARG_OF_PERICENTER":157.0339,"MEAN_ANOMALY":203.0526,"EPHEMERIS_TYPE":0,"CLASSIFICATION_TYPE":"U","NORAD_CAT_ID":56530,"ELEMENT_SET_NO":999,"REV_AT_EPOCH":15688,"BSTAR":0.0042810329,"MEAN_MOTION_DOT":0.00058843,"MEAN_MOTION_DDOT":0},{"OBJECT_NAME":"UNKNOWN","OBJECT_ID":"","EPOCH":"2026-03-07T16:41:41.743392","MEAN_MOTION":15.0507428,"ECCENTRICITY":0.0006664,"INCLINATION":85.8737,"RA_OF_ASC_NODE":153.9139,"ARG_OF_PERICENTER":326.6675,"MEAN_ANOMALY":33.4139,"EPHEMERIS_TYPE":0,"CLASSIFICATION_TYPE":"U","NORAD_CAT_ID":82448,"ELEMENT_SET_NO":999,"REV_AT_EPOCH":44981,"BSTAR":0.00062595,"MEAN_MOTION_DOT":8.933e-5,"MEAN_MOTION_DDOT":0}]
